{
  "norad_id": 52303,
  "name": "STARLINK-3742",
  "history": [
    {
      "epoch": "2026-04-11T20:20:33.463392Z",
      "apogee_km": 540.6812239174387,
      "perigee_km": 538.7027248307668,
      "latitude_deg": -3.9531020257670044e-05,
      "longitude_deg": 165.06841916130534,
      "height_km": 540.4552158534522,
      "semi_major_axis_km": 6917.8289743741025,
      "eccentricity": 0.000143,
      "inclination_deg": 53.2169,
      "raan_deg": 310.2691,
      "arg_perigee_deg": 82.3116,
      "mean_anomaly_deg": 277.8038,
      "mean_motion_rev_day": 15.08856821
    },
    {
      "epoch": "2026-04-12T20:11:20.265792Z",
      "apogee_km": 540.7309136689701,
      "perigee_km": 538.7129742150219,
      "latitude_deg": -3.854957928000808e-06,
      "longitude_deg": 161.93230088314124,
      "height_km": 540.569099729696,
      "semi_major_axis_km": 6917.858943941996,
      "eccentricity": 0.00014585,
      "inclination_deg": 53.2163,
      "raan_deg": 305.8073,
      "arg_perigee_deg": 87.256,
      "mean_anomaly_deg": 272.8599,
      "mean_motion_rev_day": 15.08847016
    },
    {
      "epoch": "2026-04-14T19:52:54.554880Z",
      "apogee_km": 540.6758026586149,
      "perigee_km": 538.8301096183177,
      "latitude_deg": -5.364155977468796e-05,
      "longitude_deg": 155.65991833955573,
      "height_km": 540.5907594463549,
      "semi_major_axis_km": 6917.889956138466,
      "eccentricity": 0.0001334,
      "inclination_deg": 53.2163,
      "raan_deg": 296.8865,
      "arg_perigee_deg": 86.407,
      "mean_anomaly_deg": 273.7074,
      "mean_motion_rev_day": 15.0883687
    },
    {
      "epoch": "2026-04-15T19:43:41.727936Z",
      "apogee_km": 540.7415244058793,
      "perigee_km": 538.7616246958432,
      "latitude_deg": 1.4296822726582049e-05,
      "longitude_deg": 152.52377799283389,
      "height_km": 540.5904246088411,
      "semi_major_axis_km": 6917.8885745508605,
      "eccentricity": 0.0001431,
      "inclination_deg": 53.2171,
      "raan_deg": 292.4262,
      "arg_perigee_deg": 86.715,
      "mean_anomaly_deg": 273.4006,
      "mean_motion_rev_day": 15.08837322
    },
    {
      "epoch": "2026-04-16T11:37:33.067200Z",
      "apogee_km": 540.7441223190608,
      "perigee_km": 538.7462379454391,
      "latitude_deg": 3.31571026569888e-05,
      "longitude_deg": -89.56631130791807,
      "height_km": 540.6304049004649,
      "semi_major_axis_km": 6917.88218013225,
      "eccentricity": 0.0001444,
      "inclination_deg": 53.2173,
      "raan_deg": 289.4529,
      "arg_perigee_deg": 89.4064,
      "mean_anomaly_deg": 270.7094,
      "mean_motion_rev_day": 15.08839414
    },
    {
      "epoch": "2026-04-17T21:00:38.733984Z",
      "apogee_km": 540.6945161556987,
      "perigee_km": 538.7687198898129,
      "latitude_deg": 3.2027764113904607e-05,
      "longitude_deg": 122.04460881075957,
      "height_km": 540.6468631876928,
      "semi_major_axis_km": 6917.868618022755,
      "eccentricity": 0.00013919,
      "inclination_deg": 53.2172,
      "raan_deg": 283.2085,
      "arg_perigee_deg": 91.1668,
      "mean_anomaly_deg": 268.9484,
      "mean_motion_rev_day": 15.08843851
    },
    {
      "epoch": "2026-04-18T20:51:25.551072Z",
      "apogee_km": 540.7463673691564,
      "perigee_km": 538.7042144208845,
      "latitude_deg": -9.665705653119987e-06,
      "longitude_deg": 118.90947244174767,
      "height_km": 540.7414627759364,
      "semi_major_axis_km": 6917.86229089502,
      "eccentricity": 0.0001476,
      "inclination_deg": 53.2175,
      "raan_deg": 278.7478,
      "arg_perigee_deg": 96.7831,
      "mean_anomaly_deg": 263.3329,
      "mean_motion_rev_day": 15.08845921
    },
    {
      "epoch": "2026-04-19T20:42:12.938400Z",
      "apogee_km": 540.7346793227971,
      "perigee_km": 538.7506314376333,
      "latitude_deg": 4.9792784157742876e-05,
      "longitude_deg": 115.77222755391482,
      "height_km": 540.6684332065237,
      "semi_major_axis_km": 6917.879655380215,
      "eccentricity": 0.0001434,
      "inclination_deg": 53.217,
      "raan_deg": 274.2873,
      "arg_perigee_deg": 91.7459,
      "mean_anomaly_deg": 268.3698,
      "mean_motion_rev_day": 15.0884024
    },
    {
      "epoch": "2026-04-20T11:00:41.238432Z",
      "apogee_km": 540.7592408066685,
      "perigee_km": 538.7346528907838,
      "latitude_deg": 3.566056503196561e-05,
      "longitude_deg": -102.11010391771244,
      "height_km": 540.6991895581054,
      "semi_major_axis_km": 6917.883946848726,
      "eccentricity": 0.00014633,
      "inclination_deg": 53.2169,
      "raan_deg": 271.6105,
      "arg_perigee_deg": 93.213,
      "mean_anomaly_deg": 266.903,
      "mean_motion_rev_day": 15.08838836
    },
    {
      "epoch": "2026-04-21T17:13:00.952032Z",
      "apogee_km": 540.6901874488221,
      "perigee_km": 538.8140559190215,
      "latitude_deg": 5.209059069171888e-05,
      "longitude_deg": 157.91727040193254,
      "height_km": 540.6057057095385,
      "semi_major_axis_km": 6917.889121683922,
      "eccentricity": 0.0001356,
      "inclination_deg": 53.2178,
      "raan_deg": 265.9605,
      "arg_perigee_deg": 87.4238,
      "mean_anomaly_deg": 272.691,
      "mean_motion_rev_day": 15.08837143
    },
    {
      "epoch": "2026-04-22T17:03:48.462048Z",
      "apogee_km": 540.8764222851714,
      "perigee_km": 538.6377917521395,
      "latitude_deg": -2.010312835326576e-05,
      "longitude_deg": 154.77861364698526,
      "height_km": 540.5908163809584,
      "semi_major_axis_km": 6917.894107018655,
      "eccentricity": 0.0001618,
      "inclination_deg": 53.2181,
      "raan_deg": 261.4992,
      "arg_perigee_deg": 86.8393,
      "mean_anomaly_deg": 273.2784,
      "mean_motion_rev_day": 15.08835512
    }
  ]
}